start=new Date('2022-03-12T00:00:00.000Z').valueOf();
sats=[{"MEAN_MOTION":"15.06431672","TLE_LINE1":"1 47835U 21018BA  22070.90965222  .00009152  00000-0  63197-3 0  9991","SEMIMAJOR_AXIS":"6925.251","PERIAPSIS":"545.927","LAUNCH_DATE":"2021-03-11","MEAN_MOTION_DOT":"0.00009152","SITE":"AFETR","REF_FRAME":"TEME","RA_OF_ASC_NODE":"325.3376","INCLINATION":"53.0529","OBJECT_ID":"2021-018BA","MEAN_ANOMALY":"307.2333","OBJECT_NAME":"STARLINK-2425","FILE":"3355378","BSTAR":"0.00063197000000","TLE_LINE2":"2 47835  53.0529 325.3376 0001717  52.8813 307.2333 15.06431672 56642","PERIOD":"95.590","GP_ID":"198519205","CENTER_NAME":"EARTH","APOAPSIS":"548.306","ELEMENT_SET_NO":"999","CLASSIFICATION_TYPE":"U","ECCENTRICITY":"0.00017170","OBJECT_TYPE":"PAYLOAD","MEAN_ELEMENT_THEORY":"SGP4","RCS_SIZE":"LARGE","MEAN_MOTION_DDOT":"0.0000000000000","REV_AT_EPOCH":"5664","DECAY_DATE":null,"EPOCH":"2022-03-11T21:49:53.951808","EPHEMERIS_TYPE":"0","COUNTRY_CODE":"US","TIME_SYSTEM":"UTC","ARG_OF_PERICENTER":"52.8813","NORAD_CAT_ID":"47835"},{"TLE_LINE1":"1 47836U 21018BB  22070.90459025  .00002563  00000-0  19089-3 0  9991","MEAN_MOTION":"15.06396838","PERIAPSIS":"546.043","SEMIMAJOR_AXIS":"6925.358","MEAN_MOTION_DOT":"0.00002563","LAUNCH_DATE":"2021-03-11","SITE":"AFETR","INCLINATION":"53.0553","RA_OF_ASC_NODE":"320.3670","REF_FRAME":"TEME","OBJECT_NAME":"STARLINK-2426","FILE":"3355378","MEAN_ANOMALY":"303.1189","OBJECT_ID":"2021-018BB","APOAPSIS":"548.403","CENTER_NAME":"EARTH","GP_ID":"198519955","BSTAR":"0.00019089000000","TLE_LINE2":"2 47836  53.0553 320.3670 0001704  56.9963 303.1189 15.06396838 56726","PERIOD":"95.592","CLASSIFICATION_TYPE":"U","ELEMENT_SET_NO":"999","OBJECT_TYPE":"PAYLOAD","ECCENTRICITY":"0.00017040","RCS_SIZE":"LARGE","MEAN_ELEMENT_THEORY":"SGP4","REV_AT_EPOCH":"5672","MEAN_MOTION_DDOT":"0.0000000000000","DECAY_DATE":null,"EPHEMERIS_TYPE":"0","EPOCH":"2022-03-11T21:42:36.597600","NORAD_CAT_ID":"47836","ARG_OF_PERICENTER":"56.9963","TIME_SYSTEM":"UTC","COUNTRY_CODE":"US"},{"MEAN_MOTION_DDOT":"0.0000000000000","REV_AT_EPOCH":"5701","RCS_SIZE":"LARGE","MEAN_ELEMENT_THEORY":"SGP4","ECCENTRICITY":"0.00020020","OBJECT_TYPE":"PAYLOAD","ELEMENT_SET_NO":"999","CLASSIFICATION_TYPE":"U","TIME_SYSTEM":"UTC","ARG_OF_PERICENTER":"53.8848","COUNTRY_CODE":"US","NORAD_CAT_ID":"47837","EPOCH":"2022-03-11T22:07:51.995712","EPHEMERIS_TYPE":"0","DECAY_DATE":null,"MEAN_MOTION_DOT":"0.00005465","LAUNCH_DATE":"2021-03-11","PERIAPSIS":"545.794","SEMIMAJOR_AXIS":"6925.315","TLE_LINE1":"1 47837U 21018BC  22070.92212958  .00005465  00000-0  38536-3 0  9998","MEAN_MOTION":"15.06410788","GP_ID":"198518204","CENTER_NAME":"EARTH","PERIOD":"95.591","TLE_LINE2":"2 47837  53.0530 300.2929 0002002  53.8848 306.2326 15.06410788 57017","BSTAR":"0.00038536000000","APOAPSIS":"548.567","OBJECT_ID":"2021-018BC","OBJECT_NAME":"STARLINK-2427","FILE":"3355378","MEAN_ANOMALY":"306.2326","INCLINATION":"53.0530","RA_OF_ASC_NODE":"300.2929","REF_FRAME":"TEME","SITE":"AFETR"},{"REF_FRAME":"TEME","RA_OF_ASC_NODE":"320.2260","INCLINATION":"53.0557","SITE":"AFETR","APOAPSIS":"548.271","BSTAR":"0.00031187000000","TLE_LINE2":"2 47838  53.0557 320.2260 0001598  66.0052 294.1104 15.06415921 56729","PERIOD":"95.591","GP_ID":"198518454","CENTER_NAME":"EARTH","MEAN_ANOMALY":"294.1104","OBJECT_NAME":"STARLINK-2429","FILE":"3355378","OBJECT_ID":"2021-018BD","MEAN_MOTION":"15.06415921","TLE_LINE1":"1 47838U 21018BD  22070.93502171  .00004369  00000-0  31187-3 0  9996","LAUNCH_DATE":"2021-03-11","MEAN_MOTION_DOT":"0.00004369","SEMIMAJOR_AXIS":"6925.300","PERIAPSIS":"546.058","EPHEMERIS_TYPE":"0","EPOCH":"2022-03-11T22:26:25.875744","DECAY_DATE":null,"NORAD_CAT_ID":"47838","COUNTRY_CODE":"US","TIME_SYSTEM":"UTC","ARG_OF_PERICENTER":"66.0052","OBJECT_TYPE":"PAYLOAD","ECCENTRICITY":"0.00015980","CLASSIFICATION_TYPE":"U","ELEMENT_SET_NO":"999","REV_AT_EPOCH":"5672","MEAN_MOTION_DDOT":"0.0000000000000","RCS_SIZE":"LARGE","MEAN_ELEMENT_THEORY":"SGP4"},{"BSTAR":"0.00030685000000","TLE_LINE2":"2 47839  53.0541 290.6790 0001537  70.1970 289.9184 15.06416673 57141","PERIOD":"95.591","CENTER_NAME":"EARTH","GP_ID":"198519705","APOAPSIS":"548.227","OBJECT_ID":"2021-018BE","MEAN_ANOMALY":"289.9184","OBJECT_NAME":"STARLINK-2431","FILE":"3355378","RA_OF_ASC_NODE":"290.6790","REF_FRAME":"TEME","INCLINATION":"53.0541","SITE":"AFETR","LAUNCH_DATE":"2021-03-11","MEAN_MOTION_DOT":"0.00004294","SEMIMAJOR_AXIS":"6925.297","PERIAPSIS":"546.098","MEAN_MOTION":"15.06416673","TLE_LINE1":"1 47839U 21018BE  22070.83091095  .00004294  00000-0  30685-3 0  9993","COUNTRY_CODE":"US","ARG_OF_PERICENTER":"70.1970","TIME_SYSTEM":"UTC","NORAD_CAT_ID":"47839","EPOCH":"2022-03-11T19:56:30.706080","EPHEMERIS_TYPE":"0","DECAY_DATE":null,"MEAN_MOTION_DDOT":"0.0000000000000","REV_AT_EPOCH":"5714","MEAN_ELEMENT_THEORY":"SGP4","RCS_SIZE":"LARGE","ECCENTRICITY":"0.00015370","OBJECT_TYPE":"PAYLOAD","ELEMENT_SET_NO":"999","CLASSIFICATION_TYPE":"U"},{"LAUNCH_DATE":"2021-03-11","MEAN_MOTION_DOT":"0.00003534","SEMIMAJOR_AXIS":"6925.305","PERIAPSIS":"545.913","MEAN_MOTION":"15.06414342","TLE_LINE1":"1 47840U 21018BF  22070.90738629  .00003534  00000-0  25594-3 0  9993","TLE_LINE2":"2 47840  53.0553 300.3460 0001814  63.0639 297.0535 15.06414342 57006","BSTAR":"0.00025594000000","PERIOD":"95.591","GP_ID":"198519456","CENTER_NAME":"EARTH","APOAPSIS":"548.426","OBJECT_ID":"2021-018BF","MEAN_ANOMALY":"297.0535","OBJECT_NAME":"STARLINK-2432","FILE":"3355378","REF_FRAME":"TEME","RA_OF_ASC_NODE":"300.3460","INCLINATION":"53.0553","SITE":"AFETR","MEAN_MOTION_DDOT":"0.0000000000000","REV_AT_EPOCH":"5700","MEAN_ELEMENT_THEORY":"SGP4","RCS_SIZE":"LARGE","ECCENTRICITY":"0.00018140","OBJECT_TYPE":"PAYLOAD","ELEMENT_SET_NO":"999","CLASSIFICATION_TYPE":"U","COUNTRY_CODE":"US","TIME_SYSTEM":"UTC","ARG_OF_PERICENTER":"63.0639","NORAD_CAT_ID":"47840","EPOCH":"2022-03-11T21:46:38.175456","EPHEMERIS_TYPE":"0","DECAY_DATE":null},{"NORAD_CAT_ID":"47841","TIME_SYSTEM":"UTC","ARG_OF_PERICENTER":"70.6407","COUNTRY_CODE":"US","EPHEMERIS_TYPE":"0","EPOCH":"2022-03-11T21:41:19.247136","DECAY_DATE":null,"REV_AT_EPOCH":"5700","MEAN_MOTION_DDOT":"0.0000000000000","MEAN_ELEMENT_THEORY":"SGP4","RCS_SIZE":"LARGE","OBJECT_TYPE":"PAYLOAD","ECCENTRICITY":"0.00014920","CLASSIFICATION_TYPE":"U","ELEMENT_SET_NO":"999","APOAPSIS":"548.232","CENTER_NAME":"EARTH","GP_ID":"198518704","TLE_LINE2":"2 47841  53.0552 300.3603 0001492  70.6407 289.4743 15.06404957 57001","BSTAR":"0.00000025209000","PERIOD":"95.592","FILE":"3355378","OBJECT_NAME":"STARLINK-2433","MEAN_ANOMALY":"289.4743","OBJECT_ID":"2021-018BG","INCLINATION":"53.0552","REF_FRAME":"TEME","RA_OF_ASC_NODE":"300.3603","SITE":"AFETR","MEAN_MOTION_DOT":"-0.00000278","LAUNCH_DATE":"2021-03-11","SEMIMAJOR_AXIS":"6925.333","PERIAPSIS":"546.165","MEAN_MOTION":"15.06404957","TLE_LINE1":"1 47841U 21018BG  22070.90369499 -.00000278  00000-0  25209-6 0  9998"},{"DECAY_DATE":null,"EPHEMERIS_TYPE":"0","EPOCH":"2022-03-11T21:21:25.326144","NORAD_CAT_ID":"47842","ARG_OF_PERICENTER":"75.1083","TIME_SYSTEM":"UTC","COUNTRY_CODE":"US","CLASSIFICATION_TYPE":"U","ELEMENT_SET_NO":"999","OBJECT_TYPE":"PAYLOAD","ECCENTRICITY":"0.00013940","RCS_SIZE":"LARGE","MEAN_ELEMENT_THEORY":"SGP4","REV_AT_EPOCH":"5663","MEAN_MOTION_DDOT":"0.0000000000000","SITE":"AFETR","INCLINATION":"53.0551","REF_FRAME":"TEME","RA_OF_ASC_NODE":"330.4297","OBJECT_NAME":"STARLINK-2434","FILE":"3355378","MEAN_ANOMALY":"285.0060","OBJECT_ID":"2021-018BH","APOAPSIS":"548.107","GP_ID":"198518954","CENTER_NAME":"EARTH","PERIOD":"95.591","TLE_LINE2":"2 47842  53.0551 330.4297 0001394  75.1083 285.0060 15.06423381 56639","BSTAR":"0.00070799000000","TLE_LINE1":"1 47842U 21018BH  22070.88987646  .00010286  00000-0  70799-3 0  9996","MEAN_MOTION":"15.06423381","SEMIMAJOR_AXIS":"6925.277","PERIAPSIS":"546.177","MEAN_MOTION_DOT":"0.00010286","LAUNCH_DATE":"2021-03-11"},{"TLE_LINE1":"1 47843U 21018BJ  22070.92902971  .00001438  00000-0  11539-3 0  9996","MEAN_MOTION":"15.06412886","MEAN_MOTION_DOT":"0.00001438","LAUNCH_DATE":"2021-03-11","PERIAPSIS":"546.006","SEMIMAJOR_AXIS":"6925.309","INCLINATION":"53.0543","RA_OF_ASC_NODE":"325.2627","REF_FRAME":"TEME","SITE":"AFETR","GP_ID":"198519206","CENTER_NAME":"EARTH","BSTAR":"0.00011539000000","TLE_LINE2":"2 47843  53.0543 325.2627 0001686  55.1735 304.9413 15.06412886 56671","PERIOD":"95.591","APOAPSIS":"548.342","OBJECT_ID":"2021-018BJ","OBJECT_NAME":"STARLINK-2435","FILE":"3355378","MEAN_ANOMALY":"304.9413","ECCENTRICITY":"0.00016860","OBJECT_TYPE":"PAYLOAD","ELEMENT_SET_NO":"999","CLASSIFICATION_TYPE":"U","MEAN_MOTION_DDOT":"0.0000000000000","REV_AT_EPOCH":"5667","RCS_SIZE":"LARGE","MEAN_ELEMENT_THEORY":"SGP4","EPOCH":"2022-03-11T22:17:48.166944","EPHEMERIS_TYPE":"0","DECAY_DATE":null,"TIME_SYSTEM":"UTC","ARG_OF_PERICENTER":"55.1735","COUNTRY_CODE":"US","NORAD_CAT_ID":"47843"},{"CLASSIFICATION_TYPE":"U","ELEMENT_SET_NO":"999","OBJECT_TYPE":"PAYLOAD","ECCENTRICITY":"0.00017030","MEAN_ELEMENT_THEORY":"SGP4","RCS_SIZE":"LARGE","REV_AT_EPOCH":"5672","MEAN_MOTION_DDOT":"0.0000000000000","DECAY_DATE":null,"EPHEMERIS_TYPE":"0","EPOCH":"2022-03-11T22:15:48.637728","NORAD_CAT_ID":"47844","COUNTRY_CODE":"US","ARG_OF_PERICENTER":"68.4086","TIME_SYSTEM":"UTC","MEAN_MOTION":"15.06409028","TLE_LINE1":"1 47844U 21018BK  22070.92764627  .00000747  00000-0  69028-4 0  9990","SEMIMAJOR_AXIS":"6925.321","PERIAPSIS":"546.007","LAUNCH_DATE":"2021-03-11","MEAN_MOTION_DOT":"0.00000747","SITE":"AFETR","RA_OF_ASC_NODE":"320.2622","REF_FRAME":"TEME","INCLINATION":"53.0554","MEAN_ANOMALY":"291.7084","FILE":"3355378","OBJECT_NAME":"STARLINK-2446","OBJECT_ID":"2021-018BK","APOAPSIS":"548.365","BSTAR":"0.00006902800000","TLE_LINE2":"2 47844  53.0554 320.2622 0001703  68.4086 291.7084 15.06409028 56727","PERIOD":"95.592","GP_ID":"198519956","CENTER_NAME":"EARTH"}];
